NORAD_CAT_ID,OBJECT_NAME,OBJECT_TYPE,EPOCH,MEAN_MOTION,ECCENTRICITY,INCLINATION,RA_OF_ASC_NODE,ARG_OF_PERICENTER,MEAN_ANOMALY,BSTAR,MEAN_MOTION_DOT,MEAN_MOTION_DDOT,TLE_LINE0,TLE_LINE1,TLE_LINE2,SEMIMAJOR_AXIS,PERIOD,APOGEE,PERIGEE,DECAYED
51117.0,STARLINK-3391,PAYLOAD,2023-11-12 21:56:47,15.08842609,0.0001429,53.2153,134.8166,91.9379,268.1777,9.3071e-05,1.194e-05,0.0,0 STARLINK-3391,1 51117U 22005P   23316.91443489  .00001194  00000-0  93071-4 0  9990,2 51117  53.2153 134.8166 0001429  91.9379 268.1777 15.08842609100898,6917.872,95.437,540.726,538.749,0.0
51117.0,STARLINK-3391,PAYLOAD,2023-11-13 12:15:15,15.08842524,0.0001411,53.2167,132.1406,95.0832,265.0321,0.00010211,1.338e-05,0.0,0 STARLINK-3391,1 51117U 22005P   23317.51059413  .00001338  00000-0  10211-3 0  9991,2 51117  53.2167 132.1406 0001411  95.0832 265.0321 15.08842524100988,6917.873,95.437,540.714,538.762,0.0
51117.0,STARLINK-3391,PAYLOAD,2023-11-13 18:36:47,15.08845871,0.0001388,53.2164,130.951,90.4617,269.6535,0.00012164,1.649e-05,0.0,0 STARLINK-3391,1 51117U 22005P   23317.77555120  .00001649  00000-0  12164-3 0  9999,2 51117  53.2164 130.9510 0001388  90.4617 269.6535 15.08845871102134,6917.862,95.437,540.688,538.767,0.0
51117.0,STARLINK-3391,PAYLOAD,2023-11-14 12:06:02,15.08835574,0.0001416,53.2166,127.6802,88.7769,271.3386,4.2429e-05,3.87e-06,0.0,0 STARLINK-3391,1 51117U 22005P   23318.50419974  .00000387  00000-0  42429-4 0  9993,2 51117  53.2166 127.6802 0001416  88.7769 271.3386 15.08835574102248,6917.894,95.438,540.738,538.779,0.0
51117.0,STARLINK-3391,PAYLOAD,2023-11-14 18:27:35,15.08836576,0.000133,53.2159,126.4909,90.1491,269.9654,4.4326e-05,4.18e-06,0.0,0 STARLINK-3391,1 51117U 22005P   23318.76915905  .00000418  00000-0  44326-4 0  9999,2 51117  53.2159 126.4909 0001330  90.1491 269.9654 15.08836576101174,6917.891,95.438,540.676,538.836,0.0
51117.0,STARLINK-3391,PAYLOAD,2023-11-15 13:32:13,15.08838255,0.0001315,53.216,122.9224,89.5141,270.6002,9.5025e-06,-1.37e-06,0.0,0 STARLINK-3391,1 51117U 22005P   23319.56403996 -.00000137  00000-0  95025-5 0  9992,2 51117  53.2160 122.9224 0001315  89.5141 270.6002 15.08838255101299,6917.886,95.438,540.66,538.841,0.0
51117.0,STARLINK-3391,PAYLOAD,2023-11-15 18:18:22,15.08840507,0.000129,53.216,122.0304,89.2322,270.8818,2.6911e-05,1.4e-06,0.0,0 STARLINK-3391,1 51117U 22005P   23319.76275806  .00000140  00000-0  26911-4 0  9991,2 51117  53.2160 122.0304 0001290  89.2322 270.8818 15.08840507102436,6917.879,95.438,540.636,538.851,0.0
51117.0,STARLINK-3391,PAYLOAD,2023-11-16 10:12:14,15.08832381,0.000124,53.2162,119.0568,90.8077,269.3057,7.5265e-05,9.1e-06,0.0,0 STARLINK-3391,1 51117U 22005P   23320.42516350  .00000910  00000-0  75265-4 0  9999,2 51117  53.2162 119.0568 0001240  90.8077 269.3057 15.08832381102536,6917.904,95.438,540.626,538.911,0.0
51117.0,STARLINK-3391,PAYLOAD,2023-11-17 10:03:01,15.0884363,0.0001303,53.2161,114.5962,84.9335,275.1806,-3.8254e-05,-8.97e-06,0.0,0 STARLINK-3391,1 51117U 22005P   23321.41876378 -.00000897  00000-0 -38254-4 0  9991,2 51117  53.2161 114.5962 0001303  84.9335 275.1806 15.08843630101573,6917.869,95.437,540.636,538.833,0.0
51117.0,STARLINK-3391,PAYLOAD,2023-11-17 16:24:33,15.08839474,0.000128,53.2178,113.4073,83.4114,276.7024,3.3705e-05,2.49e-06,0.0,0 STARLINK-3391,1 51117U 22005P   23321.68372415  .00000249  00000-0  33705-4 0  9998,2 51117  53.2178 113.4073 0001280  83.4114 276.7024 15.08839474102723,6917.882,95.438,540.632,538.862,0.0
51117.0,STARLINK-3391,PAYLOAD,2023-11-18 09:53:48,15.08839887,0.0001439,53.2166,110.1355,88.0412,272.0745,9.1553e-05,1.169e-05,0.0,0 STARLINK-3391,1 51117U 22005P   23322.41236337  .00001169  00000-0  91553-4 0  9999,2 51117  53.2166 110.1355 0001439  88.0412 272.0745 15.08839887101721,6917.881,95.438,540.741,538.75,0.0
51117.0,STARLINK-3391,PAYLOAD,2023-11-18 16:15:20,15.08842056,0.0001408,53.2165,108.946,88.7084,271.407,0.00010371,1.363e-05,0.0,0 STARLINK-3391,1 51117U 22005P   23322.67732140  .00001363  00000-0  10371-3 0  9994,2 51117  53.2165 108.9460 0001408  88.7084 271.4070 15.08842056101760,6917.874,95.437,540.713,538.765,0.0
51117.0,STARLINK-3391,PAYLOAD,2023-11-19 03:23:02,15.08842741,0.0001329,53.2167,106.864,91.8632,268.2512,6.4489e-05,7.39e-06,0.0,0 STARLINK-3391,1 51117U 22005P   23323.14100125  .00000739  00000-0  64489-4 0  9995,2 51117  53.2167 106.8640 0001329  91.8632 268.2512 15.08842741102942,6917.872,95.437,540.656,538.818,0.0
51117.0,STARLINK-3391,PAYLOAD,2023-11-19 14:30:44,15.08841354,0.0001381,53.2178,104.7836,87.5689,272.5462,4.9126e-05,4.94e-06,0.0,0 STARLINK-3391,1 51117U 22005P   23323.60468292  .00000494  00000-0  49126-4 0  9997,2 51117  53.2178 104.7836 0001381  87.5689 272.5462 15.08841354101906,6917.876,95.437,540.697,538.786,0.0
51117.0,STARLINK-3391,PAYLOAD,2023-11-19 19:16:53,15.08844296,0.0001402,53.2172,103.8901,93.7014,266.4139,7.2414e-05,8.65e-06,0.0,0 STARLINK-3391,1 51117U 22005P   23323.80339968  .00000865  00000-0  72414-4 0  9994,2 51117  53.2172 103.8901 0001402  93.7014 266.4139 15.08844296101932,6917.867,95.437,540.702,538.762,0.0
51117.0,STARLINK-3391,PAYLOAD,2023-11-20 09:35:22,15.08841943,0.0001434,53.2173,101.213,95.9286,264.1869,1.9942e-05,2.9e-07,0.0,0 STARLINK-3391,1 51117U 22005P   23324.39956179  .00000029  00000-0  19942-4 0  9997,2 51117  53.2173 101.2130 0001434  95.9286 264.1869 15.08841943103134,6917.874,95.437,540.731,538.747,0.0
51117.0,STARLINK-3391,PAYLOAD,2023-11-20 14:21:31,15.08844633,0.0001417,53.217,100.3214,94.4557,265.6597,4.2021e-05,3.81e-06,0.0,0 STARLINK-3391,1 51117U 22005P   23324.59827908  .00000381  00000-0  42021-4 0  9991,2 51117  53.2170 100.3214 0001417  94.4557 265.6597 15.08844633102053,6917.866,95.437,540.711,538.751,0.0
51117.0,STARLINK-3391,PAYLOAD,2023-11-20 19:07:40,15.08847507,0.0001466,53.2173,99.4296,95.0908,265.0252,5.9372e-05,6.57e-06,0.0,0 STARLINK-3391,1 51117U 22005P   23324.79699585  .00000657  00000-0  59372-4 0  9994,2 51117  53.2173  99.4296 0001466  95.0908 265.0252 15.08847507102083,6917.857,95.437,540.737,538.708,0.0
51117.0,STARLINK-3391,PAYLOAD,2023-11-21 09:26:09,15.08837879,0.0001647,53.218,96.7536,97.9423,262.1756,1.2212e-05,-9.4e-07,0.0,0 STARLINK-3391,1 51117U 22005P   23325.39316429 -.00000094  00000-0  12212-4 0  9992,2 51117  53.2180  96.7536 0001647  97.9423 262.1756 15.08837879103283,6917.887,95.438,540.891,538.612,0.0
51117.0,STARLINK-3391,PAYLOAD,2023-11-21 12:36:55,15.0884133,0.000143,53.2179,96.159,91.1016,269.014,3.7939e-05,3.16e-06,0.0,0 STARLINK-3391,1 51117U 22005P   23325.52564116  .00000316  00000-0  37939-4 0  9994,2 51117  53.2179  96.1590 0001430  91.1016 269.0140 15.08841330102198,6917.876,95.437,540.731,538.752,0.0
51117.0,STARLINK-3391,PAYLOAD,2023-11-21 14:12:18,15.08842318,0.0001495,53.2185,95.8611,89.0982,271.0181,4.1999e-05,3.81e-06,0.0,0 STARLINK-3391,1 51117U 22005P   23325.59188055  .00000381  00000-0  41999-4 0  9998,2 51117  53.2185  95.8611 0001495  89.0982 271.0181 15.08842318102201,6917.873,95.437,540.773,538.704,0.0
51117.0,STARLINK-3391,PAYLOAD,2023-11-21 20:33:50,15.08850492,0.0001416,53.2179,94.6718,93.168,266.9474,0.00011337,1.517e-05,0.0,0 STARLINK-3391,1 51117U 22005P   23325.85683275  .00001517  00000-0  11337-3 0  9995,2 51117  53.2179  94.6718 0001416  93.1680 266.9474 15.08850492103350,6917.848,95.437,540.693,538.734,0.0
51117.0,STARLINK-3391,PAYLOAD,2023-11-22 09:16:55,15.08842739,0.0001721,53.2174,92.2906,119.6083,240.508,2.7248e-05,1.46e-06,0.0,0 STARLINK-3391,1 51117U 22005P   23326.38675823  .00000146  00000-0  27248-4 0  9990,2 51117  53.2174  92.2906 0001721 119.6083 240.5080 15.08842739103433,6917.872,95.437,540.928,538.546,0.0
51117.0,STARLINK-3391,PAYLOAD,2023-11-22 14:03:05,15.08843253,0.0001182,53.2198,91.399,91.9528,268.16,0.00012226,1.659e-05,0.0,0 STARLINK-3391,1 51117U 22005P   23326.58547551  .00001659  00000-0  12226-3 0  9997,2 51117  53.2198  91.3990 0001182  91.9528 268.1600 15.08843253102355,6917.87,95.437,540.553,538.918,0.0
51117.0,STARLINK-3391,PAYLOAD,2023-11-23 13:53:52,15.08837349,0.0001707,53.2198,86.9349,92.6572,267.4616,-1.3523e-05,-5.03e-06,0.0,0 STARLINK-3391,1 51117U 22005P   23327.57908556 -.00000503  00000-0 -13523-4 0  9994,2 51117  53.2198  86.9349 0001707  92.6572 267.4616 15.08837349102508,6917.888,95.438,540.934,538.573,0.0
51117.0,STARLINK-3391,PAYLOAD,2023-11-23 17:04:39,15.08839356,0.0001668,53.2192,86.3399,106.6988,253.4187,-1.8522e-06,-3.18e-06,0.0,0 STARLINK-3391,1 51117U 22005P   23327.71156305 -.00000318  00000-0 -18522-5 0  9996,2 51117  53.2192  86.3399 0001668 106.6988 253.4187 15.08839356103637,6917.882,95.438,540.901,538.593,0.0
51117.0,STARLINK-3391,PAYLOAD,2023-11-24 12:09:17,15.08835408,0.0001681,53.2196,82.7794,98.426,261.6923,-4.5797e-05,-1.017e-05,0.0,0 STARLINK-3391,1 51117U 22005P   23328.50645146 -.00001017  00000-0 -45797-4 0  9990,2 51117  53.2196  82.7794 0001681  98.4260 261.6923 15.08835408103752,6917.894,95.438,540.922,538.597,0.0
51117.0,STARLINK-3391,PAYLOAD,2023-11-24 13:44:40,15.08836237,0.000171,53.2195,82.482,100.5017,259.6168,-4.152e-05,-9.49e-06,0.0,0 STARLINK-3391,1 51117U 22005P   23328.57269107 -.00000949  00000-0 -41520-4 0  9999,2 51117  53.2195  82.4820 0001710 100.5017 259.6168 15.08836237102653,6917.892,95.438,540.94,538.574,0.0
51117.0,STARLINK-3391,PAYLOAD,2023-11-24 20:06:12,15.08845403,0.0001514,53.2184,81.2898,91.3313,268.7852,4.6406e-05,4.51e-06,0.0,0 STARLINK-3391,1 51117U 22005P   23328.83764194  .00000451  00000-0  46406-4 0  9998,2 51117  53.2184  81.2898 0001514  91.3313 268.7852 15.08845403102691,6917.864,95.437,540.776,538.682,0.0
51117.0,STARLINK-3391,PAYLOAD,2023-11-25 13:35:27,15.0884245,0.0001727,53.2191,78.0173,89.0612,271.0578,0.00012518,1.705e-05,0.0,0 STARLINK-3391,1 51117U 22005P   23329.56628656  .00001705  00000-0  12518-3 0  9990,2 51117  53.2191  78.0173 0001727  89.0612 271.0578 15.08842450102805,6917.873,95.437,540.933,538.543,0.0
